#aV2008 10 19  0  0   .00000000      96 DD+AD WGS84 FIT  NGA
## 1502       .00000000   900.00000000 54758  .0000000000000
+   31     2  3  4  5  6  7  8  9 10 11 12 13 14 15 16 17 18
+         19 20 21 22 23 24 25 26 27 28 29 30 31 32  0  0  0
+          0  0  0  0  0  0  0  0  0  0  0  0  0  0  0  0  0
+          0  0  0  0  0  0  0  0  0  0  0  0  0  0  0  0  0
+          0  0  0  0  0  0  0  0  0  0  0  0  0  0  0  0  0
++         0  0  0  0  0  0  0  0  0  0  0  0  0  0  0  0  0
++         0  0  0  0  0  0  0  0  0  0  0  0  0  0  0  0  0
++         0  0  0  0  0  0  0  0  0  0  0  0  0  0  0  0  0
++         0  0  0  0  0  0  0  0  0  0  0  0  0  0  0  0  0
++         0  0  0  0  0  0  0  0  0  0  0  0  0  0  0  0  0
%c cc cc ccc ccc cccc cccc cccc cccc ccccc ccccc ccccc ccccc
%c cc cc ccc ccc cccc cccc cccc cccc ccccc ccccc ccccc ccccc
%f  0.0000000  0.000000000  0.00000000000  0.000000000000000
%f  0.0000000  0.000000000  0.00000000000  0.000000000000000
%i    0    0    0    0      0      0      0      0         0
%i    0    0    0    0      0      0      0      0         0
/*      NGA, ST. LOUIS,MO.                                  
/*   EPHEMERIS COMPUTED FROM  3 DAYS OF DATA                
/* CCCCCCCCCCCCCCCCCCCCCCCCCCCCCCCCCCCCCCCCCCCCCCCCCCCCCCCCC
/* CCCCCCCCCCCCCCCCCCCCCCCCCCCCCCCCCCCCCCCCCCCCCCCCCCCCCCCCC
*  2008 10 19  8  0   .00000000                                                 
P  2  13938.367868  17977.897854 -14148.447731    179.136407                    
V  2   1126.646838  17742.997349  23511.398309      -.026876                    
P  3 -23353.041082 -11098.640793  -7127.920094    298.963173                    
V  3   9180.841369  -1240.491019 -28974.325571       .053112                    
P  4   6091.063045  25556.040256  -2222.628802   -205.152119                    
V  4  -3186.831544   3324.350687  31407.205087      -.116359                    
P  5  21056.229682 -14355.138345   6951.901013   -300.229770                    
V  5  -4080.391977   8967.344308  29748.350474      -.574447                    
P  6 -20201.070352 -13964.705884  -9938.435682    156.895874                    
V  6  13331.744983    683.642929 -27535.273305      -.047620                    
P  7  -8566.142561  18539.741624 -16950.484178     22.130509                    
V  7  -5583.334134 -20842.393241 -20104.913398       .009422                    
P  8  -1072.271282  25505.045167  -6387.159424   -174.631967                    
V  8  -3318.788997  -7754.655057 -31235.260398      -.015966                    
P  9  14573.984611  -1788.501540  21498.235211     20.543671                    
V  9   6078.211079  28156.448053  -1611.647757       .019492                    
P 10  15255.737362   6491.637431 -20956.733996     -6.207552                    
V 10 -20009.214212  16953.503494  -9051.221080      -.004942                    
P 11 -15943.612527   4822.617985  20523.875117     17.528741                    
V 11  -9836.086518 -24908.900585  -1423.991877      -.008113                    
P 12  22400.098825  -8573.106702  11380.321995   -345.638922                    
V 12  -9464.557050  11063.705509  27227.261234       .020089                    
P 13 -14372.277775   8577.554878 -20735.248036    274.539090                    
V 13 -23746.243333 -10564.573027  12158.372936       .010505                    
P 14  -6514.309168 -16603.910143  19835.277035   -205.583272                    
V 14  23372.141805   8404.783650  14683.988299       .048477                    
P 15  25612.831603   6067.720825   3678.864804   -196.500983                    
V 15   3449.185452   4217.895284 -31205.107491      -.063516                    
P 16  -9899.016618 -11370.793191 -21811.506726    100.580303                    
V 16  21585.519156 -17539.678012   -444.703012      -.022230                    
P 17   5078.931148  16848.328623  19987.541779     39.581307                    
V 17 -24006.708653  -7862.457629  12581.962877       .003901                    
P 18  15864.027850 -19680.387169   7718.229355   -121.942377                    
V 18   9641.852985  -3364.835300 -29540.900915       .039634                    
P 19 -25200.545156  -6964.833971   5360.136872     35.675091                    
V 19  -5047.901783  -5114.809490 -30570.208883      -.000129                    
P 20 -22266.935396  11926.696583   8036.604028    101.484325                    
V 20   5709.328660  -9229.984920  29143.031993      -.010539                    
P 21   6008.082475 -22064.489074 -12757.056246     46.091045                    
V 21   5995.357665  16100.914225 -25228.262076      -.015050                    
P 22   4837.512012 -19701.663915  17275.192104    210.266664                    
V 22  18332.621420 -11780.956852 -18808.221346      -.002825                    
P 23 -22287.619937   2455.199152 -14497.867395    377.209814                    
V 23 -16527.763656  -7780.660454  23911.851920       .012984                    
P 24  13514.982859  -9723.127449 -20597.180166    134.326591                    
V 24   4220.080658  26145.821525  -9231.278331       .029128                    
P 25 -11068.261216  12473.736552 -20359.242223    -50.029840                    
V 25  -8069.501566 -25356.103694 -10787.212373       .350262                    
P 26  24320.405810  11313.549070  -1740.628598      4.533784                    
V 26  -1942.258678    612.034364 -32010.442609       .049609                    
P 27  -4923.792678  21249.832550 -14395.579055    226.223442                    
V 27  -6700.622578 -18431.730226 -23916.309595       .027775                    
P 28  -6200.515793  19839.347882  16731.740480    -23.183740                    
V 28 -17253.678581  11459.346778 -20797.203763      -.000952                    
P 29  17211.492015  -7427.479656 -18697.243150    -33.841569                    
V 29  21855.214881   9973.619277  16100.465193       .014396                    
P 30  18543.126314 -18890.348833  -1841.513444    102.866105                    
V 30   3598.122399   1072.578161  31447.238113       .021308                    
P 31  -7924.236826 -24795.040382  -4770.536989    -33.344431                    
V 31   1387.191278  -6695.644696  31258.093857      -.022301                    
P 32 -22218.163429   3663.259967  14355.166986    316.064401                    
V 32  13144.664313 -11820.508920  24282.072813      -.005801                    
EOF
